ONEWEB-0029             
1 45445U 20020X   24141.54522757  .00000369  00000+0  10053-2 0  9993
2 45445  87.8973 171.7928 0001874  99.1488 260.9852 13.11430702203368
ONEWEB-0068             
1 45446U 20020Y   24140.60495338 -.00000072  00000+0 -23878-3 0  9997
2 45446  87.8976 171.9641 0002058  99.2175 260.9186 13.11376482203178
ONEWEB-0046             
1 45447U 20020Z   24141.13651575  .00000303  00000+0  82052-3 0  9998
2 45447  87.8976 171.8712 0001712  92.2629 267.8694 13.11391390203265
ONEWEB-0063             
1 45448U 20020AA  24141.54690419  .00000333  00000+0  90460-3 0  9999
2 45448  87.8972 171.7911 0001789  86.6952 273.4380 13.11422866203394
ONEWEB-0019             
1 45449U 20020AB  24141.52137351 -.00000110  00000+0 -34583-3 0  9998
2 45449  87.8980 171.7982 0002193  89.1437 270.9942 13.11375171203244
ONEWEB-0094             
1 45450U 20020AC  24140.60269073  .00000020  00000+0  19040-4 0  9995
2 45450  87.9167 156.8250 0001983  96.6485 263.4872 13.17649116206418
ONEWEB-0087             
1 45451U 20020AD  24141.55291559  .00000097  00000+0  23773-3 0  9996
2 45451  87.8965 171.7623 0001878 100.2947 259.8393 13.11478886203290
ONEWEB-0082             
1 45452U 20020AE  24141.55390310  .00000030  00000+0  48425-4 0  9991
2 45452  87.8971 171.7656 0002104  93.8735 266.2633 13.11560127203388
ONEWEB-0050             
1 45453U 20020AF  24140.71428381  .00009538  00000+0  99849-3 0  9996
2 45453  88.0058  35.3547 0003705 137.5016 222.6500 14.89519695227383
ONEWEB-0034             
1 45454U 20020AG  24141.11770405 -.00000404  00000+0 -11787-2 0  9998
2 45454  87.8974 171.8712 0002047  95.0069 265.1292 13.11301024203240
ONEWEB-0060             
1 45455U 20020AH  24141.12542525 -.00000602  00000+0 -17363-2 0  9996
2 45455  87.8979 171.8681 0001889  95.4813 264.6531 13.11352873203209
ONEWEB-0086             
1 45456U 20020AJ  24141.52476829  .00000386  00000+0  10538-2 0  9998
2 45456  87.8974 171.7917 0001952 106.5814 253.5529 13.11361221203304
ONEWEB-0088             
1 45457U 20020AK  24140.58694492 -.00000481  00000+0 -13953-2 0  9994
2 45457  87.8971 171.9438 0001926  95.8669 264.2678 13.11289069203113
ONEWEB-0102             
1 47258U 20100A   24140.49968910 -.00000337  00000+0 -97193-3 0  9992
2 47258  87.8928 141.7366 0002172  86.5593 273.5784 13.12444989165212
ONEWEB-0109             
1 47259U 20100B   24141.04128598 -.00000464  00000+0 -13240-2 0  9996
2 47259  87.8929 141.5934 0002193  87.4037 272.7343 13.12443749165113
ONEWEB-0110             
1 47260U 20100C   24141.06511440  .00000484  00000+0  13102-2 0  9999
2 47260  87.8922 141.5950 0002221  90.6091 269.5292 13.12445511165288
ONEWEB-0111             
1 47261U 20100D   24140.56480266 -.00000355  00000+0 -10219-2 0  9990
2 47261  87.8928 141.6894 0002108  89.0234 271.1136 13.12440709165053
ONEWEB-0114             
1 47262U 20100E   24140.51876053  .00000295  00000+0  78561-3 0  9995
2 47262  87.8924 141.7157 0002347  78.6971 281.4421 13.12442873165000
ONEWEB-0117             
1 47263U 20100F   24140.51081495 -.00000003  00000+0 -42393-4 0  9998
2 47263  87.8929 141.6912 0002030  89.8914 270.2447 13.12445370165014
ONEWEB-0118             
1 47264U 20100G   24141.07624253  .00000405  00000+0  10903-2 0  9990
2 47264  87.8926 141.5827 0002011  71.8282 288.3066 13.12440792165283
ONEWEB-0119             
1 47265U 20100H   24141.02859561 -.00000335  00000+0 -96649-3 0  9994
2 47265  87.8926 141.6307 0002119  91.0647 269.0725 13.12445059165252
ONEWEB-0120             
1 47266U 20100J   24141.05096578 -.00000620  00000+0 -17599-2 0  9992
2 47266  87.8927 141.6153 0002190  85.4579 274.6799 13.12448538165284
ONEWEB-0121             
1 47267U 20100K   24141.49711648 -.00000333  00000+0 -96033-3 0  9995
2 47267  87.8924 141.5192 0002102  93.7246 266.4123 13.12440916165259
ONEWEB-0122             
1 47268U 20100L   24141.49222668 -.00000375  00000+0 -10781-2 0  9996
2 47268  87.8925 141.5250 0002217  89.1754 270.9629 13.12442717165168
ONEWEB-0123             
1 47269U 20100M   24141.03016589 -.00000357  00000+0 -10286-2 0  9990
2 47269  87.8927 141.6296 0002049  86.0093 274.1269 13.12441232165243
ONEWEB-0124             
1 47270U 20100N   24140.56163123 -.00000577  00000+0 -16395-2 0  9997
2 47270  87.8927 141.7184 0002092  98.1422 261.9944 13.12441857165067
ONEWEB-0125             
1 47271U 20100P   24141.06989791  .00000519  00000+0  14074-2 0  9997
2 47271  87.8928 141.5759 0001664  88.2846 271.8473 13.12442485165198
ONEWEB-0126             
1 47272U 20100Q   24140.56400171 -.00000370  00000+0 -10645-2 0  9999
2 47272  87.8924 141.6845 0002150  86.7752 273.3623 13.12440517165190
ONEWEB-0127             
1 47273U 20100R   24141.51619233  .00000275  00000+0  72850-3 0  9996
2 47273  87.8928 141.5226 0002135  86.7448 273.3925 13.12445262165346
ONEWEB-0128             
1 47274U 20100S   24141.53843687  .00000317  00000+0  84531-3 0  9997
2 47274  87.8934 141.5198 0002269  94.9932 265.1456 13.12442219165368
ONEWEB-0129             
1 47275U 20100T   24140.52669831  .00000459  00000+0  12410-2 0  9996
2 47275  87.8928 141.6896 0003216  63.4028 296.7429 13.12444737165163
ONEWEB-0130             
1 47276U 20100U   24141.47014809 -.00000197  00000+0 -58256-3 0  9991
2 47276  87.8926 141.5106 0002225  88.5993 271.5390 13.12437807165251
ONEWEB-0131             
1 47277U 20100V   24141.08576271  .00000176  00000+0  45350-3 0  9991
2 47277  87.8929 141.6009 0002118  92.7192 267.4179 13.12444005165243
ONEWEB-0132             
1 47278U 20100W   24140.50447342 -.00000210  00000+0 -62000-3 0  9996
2 47278  87.8930 141.7185 0001919  96.2081 263.9266 13.12443242165066
ONEWEB-0133             
1 47279U 20100X   24140.52034824  .00000337  00000+0  90165-3 0  9997
2 47279  87.8923 141.7152 0002108  93.6211 266.5158 13.12442812165229
ONEWEB-0134             
1 47280U 20100Y   24140.49016269 -.00000353  00000+0 -10166-2 0  9990
2 47280  87.8922 141.7092 0002327  91.7353 268.4042 13.12443846165199
ONEWEB-0135             
1 47281U 20100Z   24141.06830132  .00000518  00000+0  14056-2 0  9991
2 47281  87.8927 141.6083 0002155  89.8071 270.3304 13.12441780165297
ONEWEB-0136             
1 47282U 20100AA  24141.09053711 -.00000378  00000+0 -10852-2 0  9991
2 47282  87.8926 141.5723 0002693  87.5346 272.6091 13.12444676165222
ONEWEB-0137             
1 47283U 20100AB  24140.74270154  .00000088  00000+0  20928-3 0  9997
2 47283  87.8923 141.6675 0002093  85.6909 274.4459 13.12443314165085
ONEWEB-0138             
1 47284U 20100AC  24140.49334149 -.00000380  00000+0 -10919-2 0  9990
2 47284  87.8923 141.7292 0002159  88.2816 271.8560 13.12442154165132
ONEWEB-0139             
1 47285U 20100AD  24140.54099064  .00000333  00000+0  88909-3 0  9992
2 47285  87.8928 141.6917 0002115  90.3715 269.7656 13.12444425165219
ONEWEB-0140             
1 47286U 20100AE  24141.02064352 -.00000274  00000+0 -79566-3 0  9994
2 47286  87.8923 141.6000 0002225  88.9696 271.1687 13.12444284165237
ONEWEB-0141             
1 47287U 20100AF  24141.25001157 -.00008823  00000+0 -25165-1 0  9996
2 47287  87.8926 141.5551 0001842  86.3662 171.2922 13.10834398165251
ONEWEB-0142             
1 47288U 20100AG  24140.72918750 -.00000297  00000+0 -86222-3 0  9994
2 47288  87.8925 141.6500 0002149  83.0445 277.0928 13.12444914165186
ONEWEB-0143             
1 47289U 20100AH  24141.06353024  .00000462  00000+0  12500-2 0  9999
2 47289  87.8927 141.6037 0001972  89.5408 270.5946 13.12445241165202
ONEWEB-0144             
1 47290U 20100AJ  24140.73158417 -.00000235  00000+0 -68974-3 0  9990
2 47290  87.8926 141.6534 0002341  82.3311 277.8083 13.12445620165089
ONEWEB-0145             
1 47291U 20100AK  24141.46536231  .00000238  00000+0  62572-3 0  9995
2 47291  87.8925 141.5318 0002142  86.0542 274.0831 13.12444311165372
ONEWEB-0146             
1 47292U 20100AL  24141.07941952  .00000349  00000+0  93527-3 0  9990
2 47292  87.8926 141.5912 0001790 100.4273 259.7057 13.12440352165230
ONEWEB-0147             
1 47293U 20100AM  24141.50347370  .00000338  00000+0  90288-3 0  9992
2 47293  87.8922 141.5019 0002502  90.2580 269.8835 13.12450985165187
ONEWEB-0115             
1 48042U 21025A   24140.90362179  .00000354  00000+0  93384-3 0  9997
2 48042  87.8900 111.1751 0001968  89.7334 270.4020 13.13473328154063
ONEWEB-0152             
1 48043U 21025B   24140.99250883  .00000265  00000+0  68980-3 0  9990
2 48043  87.8905 111.1536 0001999  87.7603 272.3755 13.13471731154030
ONEWEB-0153             
1 48044U 21025C   24140.89409865  .00000165  00000+0  41566-3 0  9996
2 48044  87.8905 111.1605 0002126  83.1207 277.0164 13.13472562154018
ONEWEB-0154             
1 48045U 21025D   24140.89092155  .00000118  00000+0  28733-3 0  9996
2 48045  87.8902 111.1733 0002100  86.1395 273.9974 13.13472986153979
ONEWEB-0116             
1 48046U 21025E   24140.93219533 -.00000141  00000+0 -42103-3 0  9998
2 48046  87.8907 111.1329 0001963  90.6525 269.4829 13.13469258154111
ONEWEB-0150             
1 48047U 21025F   24140.98297223  .00000370  00000+0  97790-3 0  9990
2 48047  87.8901 111.1436 0002012  81.4402 278.6955 13.13472563154017
ONEWEB-0107             
1 48048U 21025G   24140.98457379  .00000396  00000+0  10493-2 0  9993
2 48048  87.8901 111.1412 0002087  76.4893 283.6468 13.13470189153995
ONEWEB-0101             
1 48049U 21025H   24141.48129472 -.00000327  00000+0 -93008-3 0  9990
2 48049  87.8908 111.0567 0002161  85.8858 274.2518 13.13467739154036
ONEWEB-0113             
1 48050U 21025J   24141.00202656  .00000075  00000+0  17099-3 0  9990
2 48050  87.8908 111.1342 0001980  89.8244 270.3112 13.13469435154055
ONEWEB-0112             
1 48051U 21025K   24140.45608366  .00000298  00000+0  78012-3 0  9996
2 48051  87.8899 111.2443 0001941  83.3674 276.7676 13.13471492153994
